ACS3                    
1 59588U 24077B   24217.60377778  .00000063  00000+0  10785-3 0  9998
2 59588  97.4035 274.5331 0019240 325.3578  34.6319 13.67694832 14021
